ONEWEB-0085             
1 45438U 20020Q   23059.54918498  .00000550  00000+0  15148-2 0  9995
2 45438  87.8800 260.4005 0001318  92.1878 267.9401 13.11414667144790
ONEWEB-0085             
1 45438U 20020Q   23059.85437282  .00000564  00000+0  15546-2 0  9993
2 45438  87.8802 260.3397 0001331  92.2015 267.9266 13.11414862144824
ONEWEB-0085             
1 45438U 20020Q   23060.84623151  .00000586  00000+0  16189-2 0  9994
2 45438  87.8801 260.1417 0001311  92.6831 267.4446 13.11416461144958
ONEWEB-0085             
1 45438U 20020Q   23060.84623151  .00000586  00000+0  16189-2 0  9994
2 45438  87.8801 260.1417 0001311  92.6831 267.4446 13.11416461144969
ONEWEB-0085             
1 45438U 20020Q   23061.60919938  .00000594  00000+0  16414-2 0  9990
2 45438  87.8803 259.9894 0001282  92.8115 267.3160 13.11416778145054
ONEWEB-0085             
1 45438U 20020Q   23062.06697981  .00000488  00000+0  13415-2 0  9992
2 45438  87.8802 259.8979 0001286  93.4737 266.6538 13.11417094145128
ONEWEB-0085             
1 45438U 20020Q   23062.44846295  .00000503  00000+0  13831-2 0  9998
2 45438  87.8805 259.8217 0001276  92.3270 267.8004 13.11417522145166
ONEWEB-0085             
1 45438U 20020Q   23062.82994608  .00000437  00000+0  11983-2 0  9994
2 45438  87.8806 259.7455 0001275  92.6938 267.4336 13.11417860145218
